YAOGAN-43 01D           
1 60461U 24148D   26068.43560480  .00010676  00000+0  37766-3 0  9999
2 60461  35.0010  61.7102 0002556 326.2473  33.8080 15.28369377 87008
STARLINK-34075          
1 63917U 25095AD  26068.31964944  .00028097  00000+0  10261-2 0  9996
2 63917  42.9947 178.0880 0002340 297.3480  62.7133 15.27595139 47726
